ONEWEB-0545             
1 54647U 22166F   25337.28816507  .00000113  00000+0  24109-3 0  9993
2 54647  87.9207 283.0600 0001914  89.9950 270.1403 13.21818122145629
ONEWEB-0580             
1 54648U 22166G   25337.33754531  .00000063  00000+0  12191-3 0  9990
2 54648  87.9209 283.0488 0001725  89.9103 270.2228 13.21824199145678
ONEWEB-0582             
1 54649U 22166H   25337.38032470  .00000039  00000+0  62425-4 0  9996
2 54649  87.9209 283.0334 0001770  95.3770 264.7566 13.21824286145658
ONEWEB-0583             
1 54650U 22166J   25337.39184287  .00000015  00000+0  38233-5 0  9998
2 54650  87.9205 283.0560 0001883  82.3682 277.7666 13.21824245145661
ONEWEB-0584             
1 54651U 22166K   25337.33588221  .00000108  00000+0  23113-3 0  9991
2 54651  87.9210 283.0531 0001643  89.6923 270.4399 13.21823484145643
ONEWEB-0585             
1 54652U 22166L   25337.36058389  .00000028  00000+0  35609-4 0  9997
2 54652  87.9207 283.0331 0001797  74.9159 285.2174 13.21827028145650
ONEWEB-0586             
1 54653U 22166M   25337.37375326  .00000006  00000+0 -17886-4 0  9996
2 54653  87.9206 283.0559 0001832  84.7294 275.4049 13.21824342145659
ONEWEB-0587             
1 54654U 22166N   25337.38362252  .00000001  00000+0 -28884-4 0  9997
2 54654  87.9217 283.0088 0001857  66.1434 293.9894 13.21824771145813
